{
"type": "FeatureCollection",
"name": "badenbaden_boundary",
"crs": { "type": "name", "properties": { "name": "urn:ogc:def:crs:OGC:1.3:CRS84" } },
"features": [
{ "type": "Feature", "properties": { "OBJID": "DEBKGVG2000004A3", "BEGINN": "2026-02-18T00:00:00", "ADE": 6, "GF": 4, "BSG": 1, "LKZ": "BW", "ARS": "082110000000", "AGS": "08211000", "SDV_ARS": "082110000000", "GEN": "Baden-Baden", "BEZ": "Stadt", "IBZ": 60, "BEM": "kreisfrei", "NBD": "ja", "SN_L": "08", "SN_R": "2", "SN_K": "11", "SN_V1": "00", "SN_V2": "00", "SN_G": "000", "FK_S3": "R", "NUTS": "DE121", "ARS_0": "082110000000", "AGS_0": "08211000", "WSK": "1975-01-01T00:00:00", "DLM_ID": "DEBKGDL20000DX2F" }, "geometry": { "type": "MultiPolygon", "coordinates": [ [ [ [ 8.126510024640121, 48.757542607345776 ], [ 8.127194650643991, 48.755226823635866 ], [ 8.121268362663518, 48.757034675592713 ], [ 8.125449042990882, 48.760983524198757 ], [ 8.126510024640121, 48.757542607345776 ] ] ], [ [ [ 8.133191985811669, 48.748597451890582 ], [ 8.126687700364615, 48.746380308211378 ], [ 8.126990174759644, 48.747430491740197 ], [ 8.128958763496799, 48.748633197566456 ], [ 8.129840074010609, 48.750091614975496 ], [ 8.131142812609632, 48.751559007189037 ], [ 8.132064109144748, 48.752478400501893 ], [ 8.133274325700443, 48.752495176385352 ], [ 8.135041350053783, 48.751974931545824 ], [ 8.133757791353498, 48.750669952914855 ], [ 8.134592961280278, 48.749724983490779 ], [ 8.133191985811669, 48.748597451890582 ] ] ], [ [ [ 8.121993895572084, 48.73999603468333 ], [ 8.12060578218628, 48.738881211091375 ], [ 8.118047249324624, 48.738070600274327 ], [ 8.113724140315885, 48.739678407255674 ], [ 8.114747344050134, 48.74100503225899 ], [ 8.119227314740927, 48.739447779732963 ], [ 8.119997975376554, 48.740181848457148 ], [ 8.12496807667269, 48.745343630818567 ], [ 8.126797819678586, 48.744682108447776 ], [ 8.124359619105162, 48.741957725075181 ], [ 8.121993895572084, 48.73999603468333 ] ] ], [ [ [ 8.15997121928784, 48.846397441975924 ], [ 8.161006555666452, 48.846397836855282 ], [ 8.161967995564634, 48.84658885851119 ], [ 8.162866854318153, 48.846735850510584 ], [ 8.163871930459397, 48.846692874743965 ], [ 8.164883165754862, 48.846521894406315 ], [ 8.165483445319461, 48.846150103182673 ], [ 8.166570081585812, 48.845083812336277 ], [ 8.166862507693123, 48.844385251394101 ], [ 8.167144649703282, 48.842554705167785 ], [ 8.167369337706395, 48.841918787828391 ], [ 8.167717142232435, 48.841413574039194 ], [ 8.168301958826053, 48.841361758222043 ], [ 8.169388504763619, 48.841640752642327 ], [ 8.170244730501235, 48.842000334347311 ], [ 8.171364644958567, 48.842258653283196 ], [ 8.173463371380389, 48.84234522768449 ], [ 8.178644607556285, 48.842429915928967 ], [ 8.179280107201325, 48.842961311758486 ], [ 8.179755752231852, 48.843424844147634 ], [ 8.181470509934178, 48.842344820226231 ], [ 8.182735203040055, 48.841689414501104 ], [ 8.184671052674105, 48.840960293712513 ], [ 8.187635801078036, 48.839980605013906 ], [ 8.188844853550458, 48.839159365629186 ], [ 8.189198454038376, 48.838940914168802 ], [ 8.19306844674802, 48.836098253942716 ], [ 8.194716799864446, 48.834395818365728 ], [ 8.196750864042976, 48.833466152894651 ], [ 8.198280583080614, 48.833110882214882 ], [ 8.20045702736793, 48.832912913995891 ], [ 8.20109097065664, 48.834203687149639 ], [ 8.201740332213335, 48.832867428721514 ], [ 8.202560272270549, 48.832245510220488 ], [ 8.202929175744178, 48.829922706424256 ], [ 8.203061921399899, 48.829133644519764 ], [ 8.207149044622136, 48.830315613566398 ], [ 8.208753064439568, 48.830114694549891 ], [ 8.210962640307828, 48.830655018887185 ], [ 8.212229772682496, 48.830950994545873 ], [ 8.213550125963982, 48.825489527457044 ], [ 8.215640976104877, 48.82652219432898 ], [ 8.219570583221321, 48.824677259596307 ], [ 8.220430145211168, 48.825234722929864 ], [ 8.22155356837583, 48.825977532925819 ], [ 8.222408341293558, 48.824024540631619 ], [ 8.223648916954291, 48.823141154743155 ], [ 8.22386003526378, 48.822416664124937 ], [ 8.224304674334503, 48.821651959620027 ], [ 8.225064788411622, 48.820551792547491 ], [ 8.226369781665985, 48.819453754903392 ], [ 8.228203901800352, 48.818402494710021 ], [ 8.230502311799922, 48.817067032017647 ], [ 8.231064088531101, 48.817387964472914 ], [ 8.233297630341511, 48.815528146668896 ], [ 8.235623038797712, 48.814224715322624 ], [ 8.237252080216212, 48.813734027399633 ], [ 8.240557947707925, 48.812337686624709 ], [ 8.242629603851711, 48.811731904004013 ], [ 8.244220678722332, 48.811206319309477 ], [ 8.246216006079214, 48.810481957848758 ], [ 8.247573132793915, 48.810005574082489 ], [ 8.2489996753055, 48.809206669742402 ], [ 8.249959149099825, 48.808785196811321 ], [ 8.250293409510753, 48.808333084111908 ], [ 8.25033395663595, 48.80804598523514 ], [ 8.250448379987414, 48.807634415434613 ], [ 8.250630430075418, 48.807233210025053 ], [ 8.250840111397013, 48.806823565472342 ], [ 8.251102558963964, 48.806450976804534 ], [ 8.251406244927255, 48.806070223506218 ], [ 8.251749087015861, 48.805726250384375 ], [ 8.252018055180381, 48.805506748163964 ], [ 8.252277900038619, 48.803424593369833 ], [ 8.254129287329697, 48.802216852177295 ], [ 8.254629076198976, 48.79950569629456 ], [ 8.255333174149364, 48.798305814422086 ], [ 8.254936635218368, 48.796750448057978 ], [ 8.254129429504038, 48.795787196212501 ], [ 8.254192614791394, 48.794420870332395 ], [ 8.255809173209324, 48.794507474179085 ], [ 8.258254429955095, 48.794637747140492 ], [ 8.259204419009571, 48.79588952270359 ], [ 8.261602507584836, 48.795271990427608 ], [ 8.262567151375389, 48.79591221067642 ], [ 8.265249042637453, 48.796820858098677 ], [ 8.269079954751911, 48.797729691650417 ], [ 8.269734596952016, 48.797550640725923 ], [ 8.270287464858599, 48.797476310672209 ], [ 8.271427442841691, 48.79728562340113 ], [ 8.272147631429547, 48.797086519030969 ], [ 8.273745531576186, 48.796776860194008 ], [ 8.272478369244796, 48.795513043350219 ], [ 8.272629053887666, 48.795046301568384 ], [ 8.272303226289321, 48.794399198615082 ], [ 8.271908915990979, 48.793836133813727 ], [ 8.271935340938297, 48.793260141901364 ], [ 8.272120268621373, 48.792751382400354 ], [ 8.272627090896803, 48.792270420241977 ], [ 8.273301209149567, 48.791664688636686 ], [ 8.274043794483351, 48.790974913116614 ], [ 8.276497478400152, 48.789614711183575 ], [ 8.276318371349136, 48.78676774471775 ], [ 8.277987827927159, 48.786288261181362 ], [ 8.279368296988133, 48.7858749626795 ], [ 8.281158794810626, 48.787215290612274 ], [ 8.282217941863072, 48.787875215181657 ], [ 8.281247306180912, 48.788854554140123 ], [ 8.283193358379224, 48.790071989103346 ], [ 8.28423002100461, 48.789435842968793 ], [ 8.286553438503889, 48.790904221568084 ], [ 8.287675714431643, 48.791169911855683 ], [ 8.286330919231995, 48.789405120516165 ], [ 8.288016364169806, 48.788584548567385 ], [ 8.289562988113369, 48.788642213005197 ], [ 8.291928049968115, 48.788734167440872 ], [ 8.293982398082674, 48.788852482050196 ], [ 8.295502396413525, 48.788113928338397 ], [ 8.295274101539643, 48.787612902226471 ], [ 8.292768631713013, 48.785817762651469 ], [ 8.28974379002144, 48.784669041047827 ], [ 8.291155996026136, 48.783554449685653 ], [ 8.289284562096444, 48.782194685124701 ], [ 8.290425785374239, 48.780750821244695 ], [ 8.290487820794203, 48.779087577319679 ], [ 8.290585229857362, 48.777245094526663 ], [ 8.29019609740997, 48.775923779170888 ], [ 8.289132298421626, 48.774472090148286 ], [ 8.288034501388427, 48.773469571894758 ], [ 8.286858428278327, 48.772393507563621 ], [ 8.286254968918945, 48.771895650725561 ], [ 8.284998608486774, 48.770790976381399 ], [ 8.283948065183623, 48.7702482120499 ], [ 8.282107707443762, 48.768223152933913 ], [ 8.280933996394641, 48.767398990989939 ], [ 8.280112358013927, 48.764827403585095 ], [ 8.282396468875438, 48.76368536092339 ], [ 8.284374763025713, 48.760890710830282 ], [ 8.285208020518004, 48.758433112946889 ], [ 8.284523925048804, 48.757618742403452 ], [ 8.285245318050176, 48.756121606989268 ], [ 8.289261446610789, 48.755778680899752 ], [ 8.29182731678541, 48.756207551397686 ], [ 8.295906569197117, 48.753571398276009 ], [ 8.30011169076981, 48.749947930272441 ], [ 8.301232431181999, 48.747729857100978 ], [ 8.301369103262477, 48.746212073014711 ], [ 8.302180662010555, 48.745112500286638 ], [ 8.305083085060364, 48.742596729364536 ], [ 8.306477900750536, 48.741832536707776 ], [ 8.3079659984078, 48.741412050371103 ], [ 8.30946910175013, 48.741261747753121 ], [ 8.312788028197513, 48.740661342392883 ], [ 8.31509672541296, 48.74013994959607 ], [ 8.315778849768444, 48.737976113638034 ], [ 8.317842296726978, 48.734732797441538 ], [ 8.318715954021735, 48.732842619902499 ], [ 8.320567407943759, 48.730071939704494 ], [ 8.319955415667033, 48.726128330073827 ], [ 8.320957714775419, 48.721361704334115 ], [ 8.320981846344703, 48.717484574476927 ], [ 8.3198055270298, 48.713394966469203 ], [ 8.320284134105057, 48.71120915815392 ], [ 8.320531365878718, 48.710242364111537 ], [ 8.320244570290912, 48.709058166839952 ], [ 8.320420259066363, 48.708170940652401 ], [ 8.318585286786004, 48.705741792522318 ], [ 8.317710267177031, 48.703430444874634 ], [ 8.315723391264846, 48.701969906864257 ], [ 8.314472608338198, 48.700766731906093 ], [ 8.313537134430453, 48.700109552388753 ], [ 8.308894376388992, 48.699685165225333 ], [ 8.305487401586239, 48.699285010944216 ], [ 8.303457730566057, 48.696977709715007 ], [ 8.300048763377358, 48.694822985617002 ], [ 8.296470136943149, 48.693420510716223 ], [ 8.296015400983134, 48.692358869489631 ], [ 8.296614876708384, 48.689923663701585 ], [ 8.298041292926669, 48.686929076124805 ], [ 8.298827473079724, 48.685469212224625 ], [ 8.298214083254093, 48.684611361744651 ], [ 8.296350324689485, 48.683161904465081 ], [ 8.293586042004652, 48.681199702862592 ], [ 8.289148055831468, 48.679599960936862 ], [ 8.287793501690185, 48.678016549228666 ], [ 8.285209316572468, 48.676588525089358 ], [ 8.284320738120215, 48.675815070426985 ], [ 8.282466737404011, 48.674167640453874 ], [ 8.278652855896127, 48.672903813673145 ], [ 8.276788460780928, 48.670822948771701 ], [ 8.275289320089092, 48.668625997731958 ], [ 8.268536205155884, 48.669355313805873 ], [ 8.264219893803809, 48.669435068148999 ], [ 8.262479099908276, 48.668995319474305 ], [ 8.260425234944643, 48.668425993800255 ], [ 8.258724481562327, 48.668193730719423 ], [ 8.256366697406763, 48.668955794537744 ], [ 8.252610479186499, 48.669113707601255 ], [ 8.2490278869631, 48.669041099852464 ], [ 8.245029208850589, 48.667394483010625 ], [ 8.241065930185247, 48.666747081821057 ], [ 8.236317546922162, 48.667505019974556 ], [ 8.234313057371539, 48.668840627192409 ], [ 8.234263329328909, 48.669325440457051 ], [ 8.234199193146271, 48.669827953349532 ], [ 8.234823166924317, 48.670722380045902 ], [ 8.235332968377918, 48.671443533725906 ], [ 8.235416608154864, 48.672857743608745 ], [ 8.234757338756658, 48.67447271892307 ], [ 8.233306289276465, 48.675585695323377 ], [ 8.232565545981231, 48.67661420186986 ], [ 8.231547629808977, 48.679508392164436 ], [ 8.229463170148914, 48.680797314930821 ], [ 8.2295723882412, 48.681951152729283 ], [ 8.229450324616105, 48.683694057173199 ], [ 8.228585445519993, 48.686213497381459 ], [ 8.228706742129496, 48.688564180151495 ], [ 8.229694107395073, 48.690410755536305 ], [ 8.228251398899573, 48.6907501200402 ], [ 8.226886906894912, 48.690578240766868 ], [ 8.225271462315931, 48.690833057688771 ], [ 8.224297286764893, 48.691613825026096 ], [ 8.224040126674932, 48.692463266914736 ], [ 8.225207680685513, 48.694232608724491 ], [ 8.227087939798958, 48.695584674075775 ], [ 8.22884175235143, 48.696736186573034 ], [ 8.229808682460419, 48.698150492455888 ], [ 8.228912211316302, 48.700759284867445 ], [ 8.220716445748147, 48.696110848675168 ], [ 8.220968631478099, 48.695369273151236 ], [ 8.218843788280717, 48.695469592258149 ], [ 8.217009714701888, 48.696034698064118 ], [ 8.214589982461444, 48.698072234163547 ], [ 8.211585362474416, 48.700403572707046 ], [ 8.209460818751216, 48.701358446375615 ], [ 8.210571937933503, 48.705187127651598 ], [ 8.207790361807568, 48.70767593452603 ], [ 8.206847414584983, 48.70864615314828 ], [ 8.2051714281989, 48.709016407612033 ], [ 8.200947650804794, 48.708929055844152 ], [ 8.199700185661285, 48.710585695701567 ], [ 8.197405206088231, 48.711392873513915 ], [ 8.19584124650155, 48.713699709966662 ], [ 8.194784789414353, 48.713614809346538 ], [ 8.194200199654597, 48.711893207697102 ], [ 8.192583937810332, 48.711859643023807 ], [ 8.192845788378555, 48.716084774012238 ], [ 8.191869176194611, 48.717468053011885 ], [ 8.189966152700022, 48.716024926513754 ], [ 8.189802534347498, 48.715175784162973 ], [ 8.188259634458998, 48.715026720441152 ], [ 8.185422202460865, 48.714652728623825 ], [ 8.181430973414804, 48.713669764084202 ], [ 8.177830950434469, 48.711615161803252 ], [ 8.171306301025114, 48.71386283897457 ], [ 8.168201396427003, 48.716235972361424 ], [ 8.160555474418683, 48.717460797564229 ], [ 8.159284511659827, 48.715616558107193 ], [ 8.153648482342668, 48.717171160851997 ], [ 8.152291023040927, 48.717124484601726 ], [ 8.150794501939201, 48.715734240442799 ], [ 8.149140077065423, 48.716149966499771 ], [ 8.147765810743779, 48.716477963870702 ], [ 8.146880880802948, 48.715435577181488 ], [ 8.139531846293798, 48.717862721211404 ], [ 8.134093338486496, 48.718897774697759 ], [ 8.127516123301987, 48.722995319588804 ], [ 8.126884634535999, 48.723395717580232 ], [ 8.122755288958787, 48.723798194605955 ], [ 8.121014448456938, 48.724040409976176 ], [ 8.119467796748673, 48.724799063912897 ], [ 8.118058799515923, 48.725201206439294 ], [ 8.11628086731359, 48.725544058435887 ], [ 8.113500540304686, 48.725943246210321 ], [ 8.113622196192459, 48.727898335232858 ], [ 8.113667102908552, 48.728646099822697 ], [ 8.112997938691267, 48.728424780858482 ], [ 8.111989569187365, 48.728187170066491 ], [ 8.11180157084547, 48.728138141225273 ], [ 8.110431249114507, 48.727793761684623 ], [ 8.108811981215888, 48.727533983379665 ], [ 8.109694735997671, 48.729496461998416 ], [ 8.111819522650226, 48.729434181645004 ], [ 8.115429975936673, 48.731248262550956 ], [ 8.11713397634821, 48.733390256740826 ], [ 8.119683923403329, 48.731870332099561 ], [ 8.121086652744879, 48.733501942902535 ], [ 8.122276500029313, 48.73476007929991 ], [ 8.1240591096213, 48.735302073526881 ], [ 8.1259453519211, 48.733443900249235 ], [ 8.125449037160744, 48.732498028647328 ], [ 8.124369910116501, 48.730333061501398 ], [ 8.123724392960529, 48.729626445845604 ], [ 8.127729384688219, 48.729217163217491 ], [ 8.129658216577152, 48.728430556168895 ], [ 8.130843277801844, 48.728113926042674 ], [ 8.131257033851547, 48.728833552258202 ], [ 8.131739561975596, 48.728699878074693 ], [ 8.133680172501341, 48.728228367223686 ], [ 8.135442377552939, 48.72778901670906 ], [ 8.136769857166115, 48.730417539066636 ], [ 8.13905635340716, 48.732346626046287 ], [ 8.139570241271731, 48.733248297405886 ], [ 8.139070640137049, 48.735694006813496 ], [ 8.13983183939172, 48.736825870157986 ], [ 8.14485741134277, 48.740074169699703 ], [ 8.14496611634338, 48.740504981481571 ], [ 8.144093486048586, 48.740686456295975 ], [ 8.142839436804818, 48.740716999258503 ], [ 8.145435812778004, 48.742400370112115 ], [ 8.147085484459557, 48.743120920530373 ], [ 8.150382947517747, 48.74388277629874 ], [ 8.151836534377676, 48.744021283435551 ], [ 8.152131274811092, 48.743284763471067 ], [ 8.154455411727694, 48.74256252535605 ], [ 8.156827261956366, 48.742641124199018 ], [ 8.158378568462201, 48.743935383259611 ], [ 8.160779331428945, 48.743414597406222 ], [ 8.161454044285028, 48.742857455602568 ], [ 8.16303999153472, 48.742296599758816 ], [ 8.164054378612216, 48.742226531623793 ], [ 8.165499541369288, 48.742217674607765 ], [ 8.167108810324489, 48.742134499407307 ], [ 8.168526516164887, 48.742074274878995 ], [ 8.169902585930904, 48.742031154298033 ], [ 8.171007708238403, 48.741964344252665 ], [ 8.172255616471494, 48.741756555129335 ], [ 8.173368902515907, 48.74151894176763 ], [ 8.174616789230154, 48.741311126191682 ], [ 8.175505735924061, 48.74121275629534 ], [ 8.176649454471624, 48.741191685052932 ], [ 8.177495756236846, 48.74141631446043 ], [ 8.178444778660255, 48.741769046734113 ], [ 8.178907135516422, 48.742057623457292 ], [ 8.179530438219446, 48.742394545710674 ], [ 8.180209827507221, 48.742696645436936 ], [ 8.181380203606514, 48.742972995379262 ], [ 8.182365465018631, 48.743137503948169 ], [ 8.183328263361325, 48.743202564112636 ], [ 8.18432038656773, 48.743223239944726 ], [ 8.18348029829594, 48.744294417859486 ], [ 8.180735079353804, 48.744804003093833 ], [ 8.181469350519205, 48.74595299653614 ], [ 8.181752732437484, 48.747713403786946 ], [ 8.183326948498348, 48.747512292885496 ], [ 8.18516700870758, 48.748165892887492 ], [ 8.187348513448804, 48.74877469979451 ], [ 8.192111290539653, 48.751051060555305 ], [ 8.195195055588441, 48.752014782025725 ], [ 8.198826211483487, 48.751478189314085 ], [ 8.200595856587899, 48.75174874106191 ], [ 8.2022002682197, 48.75263666707842 ], [ 8.202153099382071, 48.753634400059383 ], [ 8.201760531296882, 48.755605707925461 ], [ 8.203065163637557, 48.757369166214659 ], [ 8.201337273472724, 48.759663779318856 ], [ 8.201192390330641, 48.759849729211012 ], [ 8.200972689546438, 48.761041841807476 ], [ 8.200792078118392, 48.761982835593336 ], [ 8.196168714176126, 48.763911554778552 ], [ 8.194889305065482, 48.766782218909562 ], [ 8.19045056804072, 48.768534597081256 ], [ 8.188936505110883, 48.768602112437378 ], [ 8.187245237864099, 48.768674919320475 ], [ 8.186508287905559, 48.769001494606883 ], [ 8.18526295720395, 48.769713374550157 ], [ 8.18521927820778, 48.770630212148831 ], [ 8.185062737581468, 48.77105883453644 ], [ 8.184607983100802, 48.772318018279385 ], [ 8.182350084200358, 48.773422669459883 ], [ 8.182088337281153, 48.774668227073782 ], [ 8.180502241570576, 48.775498232319265 ], [ 8.179774397829229, 48.776872172586607 ], [ 8.178141069676283, 48.778570644540878 ], [ 8.177407276371088, 48.780480226961551 ], [ 8.177184022890167, 48.781061177149198 ], [ 8.17594539300462, 48.78240272354109 ], [ 8.174408790187496, 48.783650439805484 ], [ 8.170190631226339, 48.782667049671517 ], [ 8.167959776384121, 48.784233901787161 ], [ 8.166364012212169, 48.784290410775853 ], [ 8.161517096014748, 48.784566519579656 ], [ 8.159851570379917, 48.784657459668431 ], [ 8.15807462066874, 48.784800015226971 ], [ 8.156868954737357, 48.784954578237098 ], [ 8.155929253903397, 48.785240701340818 ], [ 8.155274758438155, 48.785541826750737 ], [ 8.154801141734527, 48.786044711874169 ], [ 8.152764497534983, 48.785635155608908 ], [ 8.150559558600815, 48.786531344689465 ], [ 8.150551670314131, 48.787588188749581 ], [ 8.146454242846136, 48.79004989958166 ], [ 8.163782746361878, 48.801439849178145 ], [ 8.165797383500195, 48.804865285118488 ], [ 8.160974631215765, 48.806293639697472 ], [ 8.162328434325699, 48.807599772600568 ], [ 8.163876929727175, 48.809107926894953 ], [ 8.167396347845701, 48.812978815258518 ], [ 8.171059582043274, 48.816987564824956 ], [ 8.169751640900245, 48.817554044933495 ], [ 8.167525001832731, 48.818468325120406 ], [ 8.170266551796333, 48.819359238584667 ], [ 8.170472177417738, 48.820142500890583 ], [ 8.169604252352688, 48.820448390116731 ], [ 8.175503566892166, 48.824053755265822 ], [ 8.177982980623073, 48.825621916389437 ], [ 8.181512532841273, 48.827853992173978 ], [ 8.183354220177879, 48.829009021471819 ], [ 8.187514812638682, 48.831680085165367 ], [ 8.188741896068098, 48.832499385041388 ], [ 8.189941112640525, 48.833291285575186 ], [ 8.192441896543544, 48.834942550170091 ], [ 8.190945512587755, 48.836027256984245 ], [ 8.188308481985512, 48.837592149518116 ], [ 8.187201800697082, 48.838146248708021 ], [ 8.185892693984217, 48.838801668570802 ], [ 8.184013196136677, 48.838561266084994 ], [ 8.178752842375063, 48.837888243576572 ], [ 8.176049207831703, 48.837417948286962 ], [ 8.172576483184876, 48.836782711925217 ], [ 8.171174875591442, 48.836452313850756 ], [ 8.166504768212596, 48.835211807701512 ], [ 8.16612524800604, 48.834034126227472 ], [ 8.165264453458633, 48.832378462283756 ], [ 8.164290876941047, 48.831368274066328 ], [ 8.162567216962868, 48.830369325478138 ], [ 8.159331115729191, 48.833603572256017 ], [ 8.162781006250979, 48.835268674314001 ], [ 8.15932922035033, 48.836185937961325 ], [ 8.160595192647925, 48.836924212967894 ], [ 8.162102579055379, 48.83780322450432 ], [ 8.16326687490562, 48.838482132472286 ], [ 8.162268347643565, 48.840570806429859 ], [ 8.160479144984922, 48.844281265593871 ], [ 8.156713414998736, 48.843510181549284 ], [ 8.155210282476876, 48.847834817071401 ], [ 8.15905796425719, 48.846549083535749 ], [ 8.15997121928784, 48.846397441975924 ] ], [ [ 8.193423799686945, 48.744897104957204 ], [ 8.194154368973688, 48.744696327337657 ], [ 8.194986795095094, 48.744929530568037 ], [ 8.196059187346709, 48.745266672841758 ], [ 8.196441836989107, 48.745517532649714 ], [ 8.196676687471479, 48.745729338903416 ], [ 8.196705962935516, 48.745972874147562 ], [ 8.19664094900811, 48.746196460746376 ], [ 8.196394982860374, 48.746506270758765 ], [ 8.196137125793635, 48.746779844430122 ], [ 8.195854212381374, 48.747007911370552 ], [ 8.195699162789646, 48.747121662802797 ], [ 8.195558556626377, 48.747217718761689 ], [ 8.19540521025592, 48.747295515671532 ], [ 8.195253141916638, 48.74734634678186 ], [ 8.195114665223374, 48.747397459537474 ], [ 8.194964727401171, 48.747403347604909 ], [ 8.194815215797874, 48.74740024694119 ], [ 8.194666130496314, 48.747388157548031 ], [ 8.194504732251335, 48.747348820447357 ], [ 8.194344186950314, 48.747291506059902 ], [ 8.194184068398107, 48.747225202916702 ], [ 8.194010784793333, 48.747149629035491 ], [ 8.193652333221941, 48.746962244353405 ], [ 8.193322347549229, 48.746748457118457 ], [ 8.192252992006996, 48.746060453949305 ], [ 8.191775645999771, 48.745798615368479 ], [ 8.192097638846709, 48.745607359661889 ], [ 8.192434500588895, 48.745389419692359 ], [ 8.193423799686945, 48.744897104957204 ] ], [ [ 8.211607866047656, 48.719576895617294 ], [ 8.216007031508578, 48.717975965863786 ], [ 8.218381497928217, 48.717502927280798 ], [ 8.221028439688222, 48.718178063754017 ], [ 8.223364281588772, 48.718819769332093 ], [ 8.222131478183446, 48.721916501686138 ], [ 8.220133205941966, 48.723063135081055 ], [ 8.217029430351953, 48.723134355436613 ], [ 8.214141702385932, 48.72121256298383 ], [ 8.212399248834368, 48.720097036175886 ], [ 8.211607866047656, 48.719576895617294 ] ], [ [ 8.201776990010037, 48.742595878767979 ], [ 8.202365668186619, 48.73992685188999 ], [ 8.203239662875434, 48.738703290790816 ], [ 8.203778986410146, 48.737940668768061 ], [ 8.204579715215582, 48.7368014164729 ], [ 8.2050635208361, 48.736561391562944 ], [ 8.205618547234122, 48.736239578004977 ], [ 8.206390410724838, 48.735898431704314 ], [ 8.207003869464613, 48.735863480864083 ], [ 8.208229661939933, 48.735817351733864 ], [ 8.209050996496686, 48.735953313847972 ], [ 8.209700407370063, 48.735919089329016 ], [ 8.210291348882228, 48.735597993548147 ], [ 8.210669921849419, 48.735201103366528 ], [ 8.211220417689287, 48.734974390367483 ], [ 8.211831621547573, 48.734986977479082 ], [ 8.212539498105212, 48.735239603847319 ], [ 8.213177711578419, 48.735443181330773 ], [ 8.213961980969843, 48.735602149103052 ], [ 8.214895660001334, 48.7356451583913 ], [ 8.216479170347183, 48.735143300173966 ], [ 8.217566685814358, 48.735156645300968 ], [ 8.218379475702658, 48.735227319933514 ], [ 8.219016879614735, 48.735267397025787 ], [ 8.219075737383518, 48.736042365930011 ], [ 8.218176185844326, 48.736950612768695 ], [ 8.216479468680733, 48.737743506402822 ], [ 8.215624257107777, 48.737995847300695 ], [ 8.215058640961795, 48.738164164067584 ], [ 8.213761363172555, 48.738560354197872 ], [ 8.212030147199481, 48.739505427031339 ], [ 8.211559258817331, 48.739888446998414 ], [ 8.211284819880696, 48.740261231481014 ], [ 8.210847687409906, 48.741217550453982 ], [ 8.210945270955984, 48.742470644774031 ], [ 8.211017314519168, 48.743233899876728 ], [ 8.210928101843335, 48.743981931633314 ], [ 8.209294107536556, 48.744163642846587 ], [ 8.208078624320196, 48.744840374461276 ], [ 8.207435169355577, 48.744926074342004 ], [ 8.206252722979443, 48.744901678077674 ], [ 8.205336998609139, 48.744702829850944 ], [ 8.204226737342701, 48.743726186558156 ], [ 8.201776990010037, 48.742595878767979 ] ] ] ] } }
]
}
