{
"type": "FeatureCollection",
"name": "gernsbach_boundary",
"crs": { "type": "name", "properties": { "name": "urn:ogc:def:crs:OGC:1.3:CRS84" } },
"features": [
{ "type": "Feature", "properties": { "OBJID": "DEBKGVG2000004BB", "BEGINN": "2025-01-04T00:00:00", "ADE": 6, "GF": 4, "BSG": 1, "LKZ": "BW", "ARS": "082165004017", "AGS": "08216017", "SDV_ARS": "082165004017", "GEN": "Gernsbach", "BEZ": "Stadt", "IBZ": 63, "BEM": "gemeinschaftsangehörig", "NBD": "ja", "SN_L": "08", "SN_R": "2", "SN_K": "16", "SN_V1": "50", "SN_V2": "04", "SN_G": "017", "FK_S3": "R", "NUTS": "DE124", "ARS_0": "082165004017", "AGS_0": "08216017", "WSK": "2009-01-01T00:00:00", "DLM_ID": "DEBKGDL20000E6PP" }, "geometry": { "type": "Polygon", "coordinates": [ [ [ 8.37734780538077, 48.783411740914879 ], [ 8.372806922096713, 48.78017092847162 ], [ 8.372520708889667, 48.779436333508549 ], [ 8.371770934332435, 48.777595625473872 ], [ 8.37579830706963, 48.768612809152422 ], [ 8.381446585451018, 48.762368838199606 ], [ 8.381859576902681, 48.759137877689632 ], [ 8.387050402470335, 48.76020293730415 ], [ 8.389381965058854, 48.759570187308867 ], [ 8.392340700789747, 48.760002815401023 ], [ 8.403370294467564, 48.758734674126593 ], [ 8.405876492790897, 48.758198346190284 ], [ 8.407166673674665, 48.756775113234447 ], [ 8.411004916792551, 48.749685066204634 ], [ 8.414304157939505, 48.748531055679578 ], [ 8.421734677251129, 48.743741548954389 ], [ 8.421754802105012, 48.743588984358745 ], [ 8.422284896007328, 48.74359889470314 ], [ 8.42877313270268, 48.745843165063619 ], [ 8.435492525416306, 48.748424212222034 ], [ 8.439943022001854, 48.75126870202908 ], [ 8.442801245332534, 48.752527161547079 ], [ 8.442933501219807, 48.757117826411083 ], [ 8.444722883178587, 48.758563372127959 ], [ 8.446446440924008, 48.759314940718113 ], [ 8.448712472280109, 48.759788603057295 ], [ 8.452981880024264, 48.759867288102221 ], [ 8.456792021903894, 48.760189271816749 ], [ 8.458476170913256, 48.761560683322266 ], [ 8.459556452285913, 48.763055936324449 ], [ 8.46241170116825, 48.76408891110988 ], [ 8.465151366653393, 48.764310012911189 ], [ 8.466063519458007, 48.763975838795105 ], [ 8.469479717195743, 48.762661815861236 ], [ 8.471287377511288, 48.762388932133796 ], [ 8.475123796224953, 48.762413879544873 ], [ 8.477147226316177, 48.761533073678123 ], [ 8.478754303613465, 48.760518715083158 ], [ 8.480154224250972, 48.759248672725825 ], [ 8.481587454350795, 48.757502411085738 ], [ 8.483287855010534, 48.757015841565391 ], [ 8.484560196908799, 48.756701257870553 ], [ 8.484761999967981, 48.756349061742235 ], [ 8.484967006127036, 48.755919564552812 ], [ 8.485151190140806, 48.75542780110311 ], [ 8.485198283888455, 48.754856194377702 ], [ 8.4851428785785, 48.754499336504985 ], [ 8.484898499987468, 48.754185469379522 ], [ 8.484533373226624, 48.75396224436976 ], [ 8.484238393449829, 48.753740290034351 ], [ 8.483944697509344, 48.753487413398545 ], [ 8.483771117185489, 48.753159355672352 ], [ 8.483697828779617, 48.752770234886107 ], [ 8.483640462285109, 48.75198369838003 ], [ 8.483700111134416, 48.751413511045058 ], [ 8.483769938001984, 48.750931383899989 ], [ 8.483834010989582, 48.750514805134799 ], [ 8.483755241155073, 48.750157523391238 ], [ 8.483628431287597, 48.749830314090183 ], [ 8.483408107821115, 48.749501408307744 ], [ 8.483238392387163, 48.749080588819098 ], [ 8.482845515281905, 48.747835711786152 ], [ 8.482643169955931, 48.747073919599124 ], [ 8.482513528891459, 48.746251558404737 ], [ 8.482280759954469, 48.745659403602325 ], [ 8.481928543174501, 48.745126967331089 ], [ 8.48094425922325, 48.744041535618827 ], [ 8.480569192353389, 48.743596945571198 ], [ 8.480226355946643, 48.743186068880121 ], [ 8.480098313732876, 48.742802896334275 ], [ 8.480043681198142, 48.742385355039012 ], [ 8.480005356344025, 48.741575362559182 ], [ 8.479942315557807, 48.741130099444042 ], [ 8.479821336228955, 48.740663746712038 ], [ 8.479584129763003, 48.740179808398835 ], [ 8.478150287623809, 48.738095984212634 ], [ 8.477565081524292, 48.73754382290111 ], [ 8.476908484245152, 48.737021303447797 ], [ 8.476338313479127, 48.736670543121875 ], [ 8.475671441711807, 48.736395377612979 ], [ 8.47464266041132, 48.735967421235273 ], [ 8.474183633048986, 48.735756731420082 ], [ 8.473887903553702, 48.735513312412579 ], [ 8.473614931364605, 48.735228457651175 ], [ 8.474287225733692, 48.734665749936703 ], [ 8.474899369925566, 48.734153373432648 ], [ 8.475884749298732, 48.729114256597306 ], [ 8.475862272345209, 48.724426798781543 ], [ 8.474464987867323, 48.723042901798976 ], [ 8.473407916923803, 48.721980061496161 ], [ 8.473050999815882, 48.721082922983619 ], [ 8.471750865700258, 48.71965578252626 ], [ 8.471084899141367, 48.719635900817956 ], [ 8.467489635754001, 48.719528501623707 ], [ 8.466319219573133, 48.719493512793868 ], [ 8.463115573061376, 48.719366767251323 ], [ 8.462084270665443, 48.719325946438971 ], [ 8.460386058796612, 48.718970916280647 ], [ 8.459219201775174, 48.718265771174806 ], [ 8.458274265948083, 48.717132871521514 ], [ 8.458828184176401, 48.714300233489418 ], [ 8.45909446955671, 48.712022732596793 ], [ 8.459792438661079, 48.70816452564285 ], [ 8.460248500799793, 48.706364663846244 ], [ 8.462329410240326, 48.704711575887991 ], [ 8.464396888792445, 48.702401486348968 ], [ 8.467010444734445, 48.700353255187416 ], [ 8.464570416908787, 48.699552883284461 ], [ 8.46199803304116, 48.698345200594417 ], [ 8.45875737591602, 48.697521005947557 ], [ 8.452904978720996, 48.69772814110577 ], [ 8.452558304953035, 48.69789267742317 ], [ 8.452224830146879, 48.698066452300978 ], [ 8.451917755553428, 48.698258705525411 ], [ 8.451457139114874, 48.698547083809409 ], [ 8.451176461040042, 48.698757814475762 ], [ 8.450895401995846, 48.698977533672 ], [ 8.450614340414127, 48.699197252184263 ], [ 8.450373637541375, 48.699426711150942 ], [ 8.450146512426443, 48.699656420293117 ], [ 8.449832223491489, 48.700019463036128 ], [ 8.448147596547928, 48.69968247882035 ], [ 8.446373701789351, 48.698885010963643 ], [ 8.441939843038726, 48.696715804259647 ], [ 8.439278192414381, 48.695065114933676 ], [ 8.443256022147054, 48.692583944000937 ], [ 8.44476181517696, 48.690713631279145 ], [ 8.446921306184963, 48.687838826147605 ], [ 8.447507589768204, 48.686824104839069 ], [ 8.448429970692061, 48.685248835981703 ], [ 8.448254761468045, 48.682636719972983 ], [ 8.448101860454848, 48.679818109000564 ], [ 8.447817651387419, 48.677536840416735 ], [ 8.447172281399835, 48.673512650098594 ], [ 8.445407864754953, 48.666076238783809 ], [ 8.447211912342906, 48.664841181791253 ], [ 8.447714219784075, 48.663878900665878 ], [ 8.447519733524326, 48.662049110393994 ], [ 8.445130546417216, 48.658487450153956 ], [ 8.443752345782865, 48.658003122088935 ], [ 8.443280391334115, 48.658246263507756 ], [ 8.442521214810231, 48.65853805374519 ], [ 8.44188452651022, 48.658823114965621 ], [ 8.441026551383375, 48.659203023133948 ], [ 8.440276352926132, 48.6596029176985 ], [ 8.439690870693921, 48.659960885793886 ], [ 8.439159275467713, 48.660328847880834 ], [ 8.438531927422208, 48.660713020926586 ], [ 8.43794489648975, 48.6611069359532 ], [ 8.436791894385923, 48.66107650800231 ], [ 8.434783808571044, 48.660715295108844 ], [ 8.43265498934101, 48.660639670192722 ], [ 8.430729893748676, 48.66024394499766 ], [ 8.427903113136557, 48.661891454743035 ], [ 8.41992730414497, 48.664216169175816 ], [ 8.420238435946436, 48.667424624624211 ], [ 8.418818802504534, 48.672040030108107 ], [ 8.410618619339889, 48.682708425956228 ], [ 8.410123909840371, 48.687269218201124 ], [ 8.411826841279728, 48.693814575103993 ], [ 8.405740461165578, 48.70104096685882 ], [ 8.406439972784987, 48.703420201034987 ], [ 8.402768866743205, 48.703135023579968 ], [ 8.399868412693433, 48.704204763270596 ], [ 8.397382659398218, 48.707990437359811 ], [ 8.396099233107879, 48.709322111864708 ], [ 8.395299507107145, 48.711162480856025 ], [ 8.391815881476889, 48.71354927372537 ], [ 8.388372384182578, 48.716977688283905 ], [ 8.38387430654498, 48.71942911645651 ], [ 8.380575784400646, 48.722425065164117 ], [ 8.376900353835627, 48.722831708021729 ], [ 8.376052691426024, 48.724182986846664 ], [ 8.378880360899554, 48.725757428406645 ], [ 8.37870552254968, 48.727895278809143 ], [ 8.374959511384041, 48.72933678345732 ], [ 8.372903340353696, 48.729551325788599 ], [ 8.370325063804698, 48.73108171514216 ], [ 8.368576333648734, 48.728781032418908 ], [ 8.362655660334468, 48.729862453964905 ], [ 8.361071950231104, 48.731200878089638 ], [ 8.353946409457103, 48.730874560021881 ], [ 8.353499682401404, 48.731135832408334 ], [ 8.352836330362145, 48.731374924098056 ], [ 8.352157398166813, 48.731658694378339 ], [ 8.351478060881107, 48.731951449588742 ], [ 8.350946998233491, 48.732274058675387 ], [ 8.350429119871231, 48.732605917177196 ], [ 8.350018354983, 48.732975832806503 ], [ 8.34951126890126, 48.733370873312666 ], [ 8.348628190715948, 48.73427144694945 ], [ 8.345613791343125, 48.734159067579199 ], [ 8.341001752291843, 48.731739399192101 ], [ 8.335133917032891, 48.725768348566419 ], [ 8.32632385097612, 48.720252264798901 ], [ 8.323153823146646, 48.717257254840135 ], [ 8.321921185763477, 48.711385219000242 ], [ 8.320531365878718, 48.710242364111537 ], [ 8.320284134105057, 48.71120915815392 ], [ 8.3198055270298, 48.713394966469203 ], [ 8.320981846344703, 48.717484574476927 ], [ 8.320957714775419, 48.721361704334115 ], [ 8.319955415667033, 48.726128330073827 ], [ 8.320567407943759, 48.730071939704494 ], [ 8.318715954021735, 48.732842619902499 ], [ 8.317842296726978, 48.734732797441538 ], [ 8.315778849768444, 48.737976113638034 ], [ 8.31509672541296, 48.74013994959607 ], [ 8.312788028197513, 48.740661342392883 ], [ 8.30946910175013, 48.741261747753121 ], [ 8.3079659984078, 48.741412050371103 ], [ 8.306477900750536, 48.741832536707776 ], [ 8.305083085060364, 48.742596729364536 ], [ 8.302180662010555, 48.745112500286638 ], [ 8.301369103262477, 48.746212073014711 ], [ 8.301232431181999, 48.747729857100978 ], [ 8.30011169076981, 48.749947930272441 ], [ 8.295906569197117, 48.753571398276009 ], [ 8.29182731678541, 48.756207551397686 ], [ 8.289261446610789, 48.755778680899752 ], [ 8.285245318050176, 48.756121606989268 ], [ 8.284523925048804, 48.757618742403452 ], [ 8.285208020518004, 48.758433112946889 ], [ 8.284374763025713, 48.760890710830282 ], [ 8.282396468875438, 48.76368536092339 ], [ 8.280112358013927, 48.764827403585095 ], [ 8.280933996394641, 48.767398990989939 ], [ 8.282107707443762, 48.768223152933913 ], [ 8.283948065183623, 48.7702482120499 ], [ 8.284998608486774, 48.770790976381399 ], [ 8.286254968918945, 48.771895650725561 ], [ 8.286858428278327, 48.772393507563621 ], [ 8.288034501388427, 48.773469571894758 ], [ 8.295541858119638, 48.772413023631991 ], [ 8.301314042014013, 48.769387310336278 ], [ 8.30714853920988, 48.770393224727869 ], [ 8.309167444510445, 48.77000885639238 ], [ 8.311442433555007, 48.770855688793873 ], [ 8.317670598698641, 48.77068118343405 ], [ 8.321222577678869, 48.772514246463281 ], [ 8.322030605496099, 48.777262511433499 ], [ 8.323102389582234, 48.77825517457871 ], [ 8.325345078947608, 48.778029135578358 ], [ 8.331231060216203, 48.779439633867412 ], [ 8.332649748400955, 48.778459622226769 ], [ 8.334460631582902, 48.77997940088737 ], [ 8.336350522075723, 48.77911647994209 ], [ 8.336750180871766, 48.778701394909241 ], [ 8.337337051176265, 48.778361924938181 ], [ 8.337950315851201, 48.778040959146324 ], [ 8.340982754355087, 48.777518584645364 ], [ 8.342519109727073, 48.776933632830392 ], [ 8.344564850075287, 48.776078975871151 ], [ 8.345046733675371, 48.776109378337196 ], [ 8.345511155337944, 48.776073391127966 ], [ 8.346180784163341, 48.776014385293124 ], [ 8.352106245113466, 48.777898509852811 ], [ 8.353825153386712, 48.778735091223211 ], [ 8.354661481438027, 48.779167803385626 ], [ 8.355550684001724, 48.779422994299338 ], [ 8.356353858995686, 48.779587254286739 ], [ 8.357115989345562, 48.779661451031622 ], [ 8.357766137293162, 48.77969295375518 ], [ 8.357886176224021, 48.779749247175303 ], [ 8.358419950133111, 48.779993445744992 ], [ 8.359135706189326, 48.780124184532923 ], [ 8.360144889384609, 48.780404140511585 ], [ 8.360990465838505, 48.780628693230447 ], [ 8.362021229409848, 48.780737777093968 ], [ 8.36309567795025, 48.780877446073276 ], [ 8.363805007971315, 48.781129114044553 ], [ 8.364599091026443, 48.781501427291801 ], [ 8.365849595683787, 48.781733715394729 ], [ 8.36608944197615, 48.781427405529122 ], [ 8.366908351529268, 48.781380134491201 ], [ 8.371279222532468, 48.785089616973387 ], [ 8.375805655089582, 48.785257115920253 ], [ 8.380106890394153, 48.786841645282252 ], [ 8.37734780538077, 48.783411740914879 ] ] ] } }
]
}
