{
"type": "FeatureCollection",
"name": "sinzheim_boundary",
"crs": { "type": "name", "properties": { "name": "urn:ogc:def:crs:OGC:1.3:CRS84" } },
"features": [
{ "type": "Feature", "properties": { "OBJID": "DEBKGVG2000004BM", "BEGINN": "2022-12-20T00:00:00", "ADE": 6, "GF": 4, "BSG": 1, "LKZ": "BW", "ARS": "082165007049", "AGS": "08216049", "SDV_ARS": "082165007049", "GEN": "Sinzheim", "BEZ": "Gemeinde", "IBZ": 64, "BEM": "gemeinschaftsangehörig", "NBD": "ja", "SN_L": "08", "SN_R": "2", "SN_K": "16", "SN_V1": "50", "SN_V2": "07", "SN_G": "049", "FK_S3": "R", "NUTS": "DE124", "ARS_0": "082165007049", "AGS_0": "08216049", "WSK": "2009-01-01T00:00:00", "DLM_ID": "DEBKGDL20000E446" }, "geometry": { "type": "MultiPolygon", "coordinates": [ [ [ [ 8.194986795095094, 48.744929530568037 ], [ 8.194154368973688, 48.744696327337657 ], [ 8.193423799686945, 48.744897104957204 ], [ 8.192434500588895, 48.745389419692359 ], [ 8.192097638846709, 48.745607359661889 ], [ 8.191775645999771, 48.745798615368479 ], [ 8.192252992006996, 48.746060453949305 ], [ 8.193322347549229, 48.746748457118457 ], [ 8.193652333221941, 48.746962244353405 ], [ 8.194010784793333, 48.747149629035491 ], [ 8.194184068398107, 48.747225202916702 ], [ 8.194344186950314, 48.747291506059902 ], [ 8.194504732251335, 48.747348820447357 ], [ 8.194666130496314, 48.747388157548031 ], [ 8.194815215797874, 48.74740024694119 ], [ 8.194964727401171, 48.747403347604909 ], [ 8.195114665223374, 48.747397459537474 ], [ 8.195253141916638, 48.74734634678186 ], [ 8.19540521025592, 48.747295515671532 ], [ 8.195558556626377, 48.747217718761689 ], [ 8.195699162789646, 48.747121662802797 ], [ 8.195854212381374, 48.747007911370552 ], [ 8.196137125793635, 48.746779844430122 ], [ 8.196394982860374, 48.746506270758765 ], [ 8.19664094900811, 48.746196460746376 ], [ 8.196705962935516, 48.745972874147562 ], [ 8.196676687471479, 48.745729338903416 ], [ 8.196441836989107, 48.745517532649714 ], [ 8.196059187346709, 48.745266672841758 ], [ 8.194986795095094, 48.744929530568037 ] ] ], [ [ [ 8.221028439688222, 48.718178063754017 ], [ 8.218381497928217, 48.717502927280798 ], [ 8.216007031508578, 48.717975965863786 ], [ 8.211607866047656, 48.719576895617294 ], [ 8.212399248834368, 48.720097036175886 ], [ 8.214141702385932, 48.72121256298383 ], [ 8.217029430351953, 48.723134355436613 ], [ 8.220133205941966, 48.723063135081055 ], [ 8.222131478183446, 48.721916501686138 ], [ 8.223364281588772, 48.718819769332093 ], [ 8.221028439688222, 48.718178063754017 ] ] ], [ [ [ 8.218176185844326, 48.736950612768695 ], [ 8.219075737383518, 48.736042365930011 ], [ 8.219016879614735, 48.735267397025787 ], [ 8.218379475702658, 48.735227319933514 ], [ 8.217566685814358, 48.735156645300968 ], [ 8.216479170347183, 48.735143300173966 ], [ 8.214895660001334, 48.7356451583913 ], [ 8.213961980969843, 48.735602149103052 ], [ 8.213177711578419, 48.735443181330773 ], [ 8.212539498105212, 48.735239603847319 ], [ 8.211831621547573, 48.734986977479082 ], [ 8.211220417689287, 48.734974390367483 ], [ 8.210669921849419, 48.735201103366528 ], [ 8.210291348882228, 48.735597993548147 ], [ 8.209700407370063, 48.735919089329016 ], [ 8.209050996496686, 48.735953313847972 ], [ 8.208229661939933, 48.735817351733864 ], [ 8.207003869464613, 48.735863480864083 ], [ 8.206390410724838, 48.735898431704314 ], [ 8.205618547234122, 48.736239578004977 ], [ 8.2050635208361, 48.736561391562944 ], [ 8.204579715215582, 48.7368014164729 ], [ 8.203778986410146, 48.737940668768061 ], [ 8.203239662875434, 48.738703290790816 ], [ 8.202365668186619, 48.73992685188999 ], [ 8.201776990010037, 48.742595878767979 ], [ 8.204226737342701, 48.743726186558156 ], [ 8.205336998609139, 48.744702829850944 ], [ 8.206252722979443, 48.744901678077674 ], [ 8.207435169355577, 48.744926074342004 ], [ 8.208078624320196, 48.744840374461276 ], [ 8.209294107536556, 48.744163642846587 ], [ 8.210928101843335, 48.743981931633314 ], [ 8.211017314519168, 48.743233899876728 ], [ 8.210945270955984, 48.742470644774031 ], [ 8.210847687409906, 48.741217550453982 ], [ 8.211284819880696, 48.740261231481014 ], [ 8.211559258817331, 48.739888446998414 ], [ 8.212030147199481, 48.739505427031339 ], [ 8.213761363172555, 48.738560354197872 ], [ 8.215058640961795, 48.738164164067584 ], [ 8.215624257107777, 48.737995847300695 ], [ 8.216479468680733, 48.737743506402822 ], [ 8.218176185844326, 48.736950612768695 ] ] ], [ [ [ 8.167959776384121, 48.784233901787161 ], [ 8.170190631226339, 48.782667049671517 ], [ 8.174408790187496, 48.783650439805484 ], [ 8.17594539300462, 48.78240272354109 ], [ 8.177184022890167, 48.781061177149198 ], [ 8.177407276371088, 48.780480226961551 ], [ 8.178141069676283, 48.778570644540878 ], [ 8.179774397829229, 48.776872172586607 ], [ 8.180502241570576, 48.775498232319265 ], [ 8.182088337281153, 48.774668227073782 ], [ 8.182350084200358, 48.773422669459883 ], [ 8.184607983100802, 48.772318018279385 ], [ 8.185062737581468, 48.77105883453644 ], [ 8.18521927820778, 48.770630212148831 ], [ 8.18526295720395, 48.769713374550157 ], [ 8.186508287905559, 48.769001494606883 ], [ 8.187245237864099, 48.768674919320475 ], [ 8.188936505110883, 48.768602112437378 ], [ 8.19045056804072, 48.768534597081256 ], [ 8.194889305065482, 48.766782218909562 ], [ 8.196168714176126, 48.763911554778552 ], [ 8.200792078118392, 48.761982835593336 ], [ 8.200972689546438, 48.761041841807476 ], [ 8.201192390330641, 48.759849729211012 ], [ 8.201337273472724, 48.759663779318856 ], [ 8.203065163637557, 48.757369166214659 ], [ 8.201760531296882, 48.755605707925461 ], [ 8.202153099382071, 48.753634400059383 ], [ 8.2022002682197, 48.75263666707842 ], [ 8.200595856587899, 48.75174874106191 ], [ 8.198826211483487, 48.751478189314085 ], [ 8.195195055588441, 48.752014782025725 ], [ 8.192111290539653, 48.751051060555305 ], [ 8.187348513448804, 48.74877469979451 ], [ 8.18516700870758, 48.748165892887492 ], [ 8.183326948498348, 48.747512292885496 ], [ 8.181752732437484, 48.747713403786946 ], [ 8.181469350519205, 48.74595299653614 ], [ 8.180735079353804, 48.744804003093833 ], [ 8.18348029829594, 48.744294417859486 ], [ 8.18432038656773, 48.743223239944726 ], [ 8.183328263361325, 48.743202564112636 ], [ 8.182365465018631, 48.743137503948169 ], [ 8.181380203606514, 48.742972995379262 ], [ 8.180209827507221, 48.742696645436936 ], [ 8.179530438219446, 48.742394545710674 ], [ 8.178907135516422, 48.742057623457292 ], [ 8.178444778660255, 48.741769046734113 ], [ 8.177495756236846, 48.74141631446043 ], [ 8.176649454471624, 48.741191685052932 ], [ 8.175505735924061, 48.74121275629534 ], [ 8.174616789230154, 48.741311126191682 ], [ 8.173368902515907, 48.74151894176763 ], [ 8.172255616471494, 48.741756555129335 ], [ 8.171007708238403, 48.741964344252665 ], [ 8.169902585930904, 48.742031154298033 ], [ 8.168526516164887, 48.742074274878995 ], [ 8.167108810324489, 48.742134499407307 ], [ 8.165499541369288, 48.742217674607765 ], [ 8.164054378612216, 48.742226531623793 ], [ 8.16303999153472, 48.742296599758816 ], [ 8.161454044285028, 48.742857455602568 ], [ 8.160779331428945, 48.743414597406222 ], [ 8.158378568462201, 48.743935383259611 ], [ 8.156827261956366, 48.742641124199018 ], [ 8.154455411727694, 48.74256252535605 ], [ 8.152131274811092, 48.743284763471067 ], [ 8.151836534377676, 48.744021283435551 ], [ 8.150382947517747, 48.74388277629874 ], [ 8.147085484459557, 48.743120920530373 ], [ 8.145435812778004, 48.742400370112115 ], [ 8.142839436804818, 48.740716999258503 ], [ 8.141936104926538, 48.740640701472081 ], [ 8.141173295361716, 48.740338840487738 ], [ 8.140428723611802, 48.739942695489859 ], [ 8.139897795191672, 48.739670492696341 ], [ 8.139291069665852, 48.73955863300354 ], [ 8.138896975804956, 48.739550260763842 ], [ 8.138502882079759, 48.739541887127153 ], [ 8.137708580669688, 48.739650971424666 ], [ 8.136972174928024, 48.739968225000332 ], [ 8.135870627885778, 48.740520641127681 ], [ 8.135690902017199, 48.740579800648732 ], [ 8.135204769170906, 48.740785398980996 ], [ 8.134746719940416, 48.741252522578101 ], [ 8.13469898648119, 48.741674392626884 ], [ 8.134962076080891, 48.742138867948071 ], [ 8.136193306934926, 48.743676654760314 ], [ 8.136636596718942, 48.744072977895669 ], [ 8.137343740675862, 48.745011872347384 ], [ 8.13759392287511, 48.745649911981694 ], [ 8.137456234750777, 48.746326647589107 ], [ 8.137389525073496, 48.746791855297687 ], [ 8.137409506924778, 48.747288069769546 ], [ 8.137608543275167, 48.747729762362439 ], [ 8.13771522247424, 48.748256983513095 ], [ 8.137560932727594, 48.749968055722633 ], [ 8.137596130321977, 48.750643624233547 ], [ 8.137784831269464, 48.751520402611469 ], [ 8.138134908241119, 48.752436600348787 ], [ 8.133701352644744, 48.752781231695785 ], [ 8.132637792405307, 48.754389121872194 ], [ 8.127194650643991, 48.755226823635866 ], [ 8.126510024640121, 48.757542607345776 ], [ 8.125449042990882, 48.760983524198757 ], [ 8.121268362663518, 48.757034675592713 ], [ 8.115820910493458, 48.757394860567686 ], [ 8.114902794391504, 48.758355919552336 ], [ 8.112143686434782, 48.754756429006676 ], [ 8.111016985493139, 48.751029310677552 ], [ 8.104814922431352, 48.744624428581524 ], [ 8.106090935986481, 48.744130053631864 ], [ 8.105317567807832, 48.743258611390928 ], [ 8.104907920717078, 48.7427369151874 ], [ 8.103970502219507, 48.742986640229901 ], [ 8.102888899794799, 48.74312527534552 ], [ 8.10205413267588, 48.743224237567489 ], [ 8.101268844633646, 48.743423236402165 ], [ 8.100424028124188, 48.743449987928223 ], [ 8.099652931730011, 48.743361354878182 ], [ 8.099019072348092, 48.743248688140824 ], [ 8.097868610366396, 48.743403782696582 ], [ 8.096569795317579, 48.743807594018811 ], [ 8.095216152134222, 48.74421920214504 ], [ 8.093236909813436, 48.74517510960856 ], [ 8.091232162915807, 48.744996712695347 ], [ 8.090649545893681, 48.744948093100682 ], [ 8.085672696599296, 48.737497914526259 ], [ 8.085293502688602, 48.738011545026609 ], [ 8.084531518327687, 48.739110707022753 ], [ 8.084192877012383, 48.739355283244947 ], [ 8.083953376249317, 48.739521034085797 ], [ 8.083400429939086, 48.73969796433925 ], [ 8.08268619692601, 48.739835392652722 ], [ 8.081786358471145, 48.740148733375598 ], [ 8.081199510645529, 48.740459882087229 ], [ 8.080631612349658, 48.740663467032228 ], [ 8.07958315601285, 48.74095555957841 ], [ 8.079788506300588, 48.741202972165375 ], [ 8.079851979554391, 48.741294332351423 ], [ 8.080027468836773, 48.741595080949814 ], [ 8.080147706515181, 48.741912621821953 ], [ 8.080010186307826, 48.74221555237262 ], [ 8.079846826941026, 48.742490926766088 ], [ 8.079902695302177, 48.742735083902438 ], [ 8.080000229235436, 48.74296215270553 ], [ 8.080275330230581, 48.743175092026895 ], [ 8.080756075303823, 48.743356516084489 ], [ 8.081313893221527, 48.743629593320371 ], [ 8.081481175723672, 48.743822187459962 ], [ 8.081739120710735, 48.744106732056416 ], [ 8.081923751317699, 48.744497654539224 ], [ 8.07892591745917, 48.744045484563294 ], [ 8.076272337724731, 48.746785970770645 ], [ 8.076648085123095, 48.74789684315207 ], [ 8.075299306274955, 48.749676747866147 ], [ 8.077568775213653, 48.750530341001827 ], [ 8.07820002411896, 48.75143027346995 ], [ 8.077327573554843, 48.752639579376151 ], [ 8.080271945776873, 48.754449295138862 ], [ 8.08557456520386, 48.755635335562381 ], [ 8.087847538610889, 48.756998363145684 ], [ 8.0901803719462, 48.760999007314645 ], [ 8.095543863743277, 48.759873434132246 ], [ 8.09750328180216, 48.762624564372835 ], [ 8.096717292912121, 48.763226554229107 ], [ 8.091839264323177, 48.76428754200905 ], [ 8.093311681790288, 48.767112136109589 ], [ 8.093118470873913, 48.767901020558448 ], [ 8.093154639516158, 48.768819586292572 ], [ 8.093840555428331, 48.769435698501475 ], [ 8.095799234719589, 48.77126257183231 ], [ 8.09699471957666, 48.772366818075469 ], [ 8.102891248985422, 48.773150923897028 ], [ 8.105586823614802, 48.774936586078589 ], [ 8.106265825426149, 48.776219898095221 ], [ 8.107984243999198, 48.775358148217123 ], [ 8.10957349857002, 48.773186789853568 ], [ 8.10950009329223, 48.771358653515406 ], [ 8.110662297535265, 48.771439982937423 ], [ 8.112560064913636, 48.770933187967188 ], [ 8.112850472206777, 48.77015380097501 ], [ 8.117874535015945, 48.770523414288199 ], [ 8.118362067471711, 48.770129143320624 ], [ 8.120302464962347, 48.770924511758466 ], [ 8.122649749124749, 48.771865605970994 ], [ 8.135503125320936, 48.777252952053175 ], [ 8.138476489994382, 48.778397428912363 ], [ 8.144279518982067, 48.780630687576441 ], [ 8.14227052876293, 48.782189716316417 ], [ 8.144091268299587, 48.782623574445623 ], [ 8.150587952753106, 48.781475440107336 ], [ 8.15342671619873, 48.784257374800148 ], [ 8.154801141734527, 48.786044711874169 ], [ 8.155274758438155, 48.785541826750737 ], [ 8.155929253903397, 48.785240701340818 ], [ 8.156868954737357, 48.784954578237098 ], [ 8.15807462066874, 48.784800015226971 ], [ 8.159851570379917, 48.784657459668431 ], [ 8.161517096014748, 48.784566519579656 ], [ 8.166364012212169, 48.784290410775853 ], [ 8.167959776384121, 48.784233901787161 ] ] ] ] } }
]
}
